{"type": "FeatureCollection", "features": [ {"type": "Feature", "properties": {"norad_id": 43262, "name": "GAOFEN-1 04", "group": "resource", "lat": 52.68588428818514, "lon": -127.63478855717163, "alt_km": 635.409073920744, "timestamp": "2025-12-09T18:55:16.896229+00:00", "meta": {"OBJECT_NAME": "GAOFEN-1 04", "OBJECT_ID": "2018-031D", "EPOCH": "2025-12-09T15:05:51.038880", "MEAN_MOTION": 14.76440091, "ECCENTRICITY": 0.00012092, "INCLINATION": 98.0806, "RA_OF_ASC_NODE": 41.4631, "ARG_OF_PERICENTER": 54.3325, "MEAN_ANOMALY": 305.7997, "EPHEMERIS_TYPE": 0, "CLASSIFICATION_TYPE": "U", "NORAD_CAT_ID": 43262, "ELEMENT_SET_NO": 999, "REV_AT_EPOCH": 41471, "BSTAR": 0.00020914171, "MEAN_MOTION_DOT": 1.403e-05, "MEAN_MOTION_DDOT": 0}, "tle": {"line1": "1 43262U 18031D   25343.62906295  .00001403  00000+0  20914-3 0  9992", "line2": "2 43262  98.0806  41.4631 0001209  54.3325 305.7997 14.76440091414716"}}, "geometry": {"type": "Point", "coordinates": [-127.63478855717163, 52.68588428818514]}}, {"type": "Feature", "properties": {"norad_id": 43437, "name": "SENTINEL-3B", "group": "resource", "lat": 76.52026563553703, "lon": -91.68712688781592, "alt_km": 794.2892709999296, "timestamp": "2025-12-09T18:55:16.896245+00:00", "meta": {"OBJECT_NAME": "SENTINEL-3B", "OBJECT_ID": "2018-039A", "EPOCH": "2025-12-09T10:02:13.739712", "MEAN_MOTION": 14.26741127, "ECCENTRICITY": 0.0001551, "INCLINATION": 98.627, "RA_OF_ASC_NODE": 48.6509, "ARG_OF_PERICENTER": 106.2359, "MEAN_ANOMALY": 253.8993, "EPHEMERIS_TYPE": 0, "CLASSIFICATION_TYPE": "U", "NORAD_CAT_ID": 43437, "ELEMENT_SET_NO": 999, "REV_AT_EPOCH": 39706, "BSTAR": 0.00013773156, "MEAN_MOTION_DOT": 2.9e-06, "MEAN_MOTION_DDOT": 0}, "tle": {"line1": "1 43437U 18039A   25343.41821458  .00000290  00000+0  13773-3 0  9996", "line2": "2 43437  98.6270  48.6509 0001551 106.2359 253.8993 14.26741127397064"}}, "geometry": {"type": "Point", "coordinates": [-91.68712688781592, 76.52026563553703]}}, {"type": "Feature", "properties": {"norad_id": 43461, "name": "GAOFEN-5 01", "group": "resource", "lat": 81.26096032774066, "lon": -158.5009270795256, "alt_km": 684.5607245503988, "timestamp": "2025-12-09T18:55:16.896256+00:00", "meta": {"OBJECT_NAME": "GAOFEN-5 01", "OBJECT_ID": "2018-043A", "EPOCH": "2025-12-09T15:12:42.345216", "MEAN_MOTION": 14.60405259, "ECCENTRICITY": 0.00011627, "INCLINATION": 98.4321, "RA_OF_ASC_NODE": 306.5469, "ARG_OF_PERICENTER": 352.2151, "MEAN_ANOMALY": 7.903, "EPHEMERIS_TYPE": 0, "CLASSIFICATION_TYPE": "U", "NORAD_CAT_ID": 43461, "ELEMENT_SET_NO": 999, "REV_AT_EPOCH": 40402, "BSTAR": 0.0002046942, "MEAN_MOTION_DOT": 9.42e-06, "MEAN_MOTION_DDOT": 0}, "tle": {"line1": "1 43461U 18043A   25343.63382344  .00000942  00000+0  20469-3 0  9992", "line2": "2 43461  98.4321 306.5469 0001162 352.2151   7.9030 14.60405259404024"}}, "geometry": {"type": "Point", "coordinates": [-158.5009270795256, 81.26096032774066]}}, {"type": "Feature", "properties": {"norad_id": 43484, "name": "GAOFEN-6", "group": "resource", "lat": -79.91629952168915, "lon": 98.60837319897934, "alt_km": 656.0646462031464, "timestamp": "2025-12-09T18:55:16.896266+00:00", "meta": {"OBJECT_NAME": "GAOFEN-6", "OBJECT_ID": "2018-048A", "EPOCH": "2025-12-09T14:25:14.572704", "MEAN_MOTION": 14.76556671, "ECCENTRICITY": 0.00133069, "INCLINATION": 97.8031, "RA_OF_ASC_NODE": 47.9731, "ARG_OF_PERICENTER": 72.552, "MEAN_ANOMALY": 287.7144, "EPHEMERIS_TYPE": 0, "CLASSIFICATION_TYPE": "U", "NORAD_CAT_ID": 43484, "ELEMENT_SET_NO": 999, "REV_AT_EPOCH": 40541, "BSTAR": 0.0001693861, "MEAN_MOTION_DOT": 1.134e-05, "MEAN_MOTION_DDOT": 0}, "tle": {"line1": "1 43484U 18048A   25343.60086311  .00001134  00000+0  16939-3 0  9995", "line2": "2 43484  97.8031  47.9731 0013306  72.5520 287.7144 14.76556671405413"}}, "geometry": {"type": "Point", "coordinates": [98.60837319897934, -79.91629952168915]}}, {"type": "Feature", "properties": {"norad_id": 43585, "name": "GAOFEN-11 01", "group": "resource", "lat": 32.74360325092177, "lon": 42.113252953121695, "alt_km": 416.2022196402204, "timestamp": "2025-12-09T18:55:16.896276+00:00", "meta": {"OBJECT_NAME": "GAOFEN-11 01", "OBJECT_ID": "2018-063A", "EPOCH": "2025-12-09T15:40:43.165632", "MEAN_MOTION": 15.49082711, "ECCENTRICITY": 0.00046588, "INCLINATION": 97.1557, "RA_OF_ASC_NODE": 46.6133, "ARG_OF_PERICENTER": 328.5556, "MEAN_ANOMALY": 31.5416, "EPHEMERIS_TYPE": 0, "CLASSIFICATION_TYPE": "U", "NORAD_CAT_ID": 43585, "ELEMENT_SET_NO": 999, "REV_AT_EPOCH": 41094, "BSTAR": 0.00035273424, "MEAN_MOTION_DOT": 0.00019078, "MEAN_MOTION_DDOT": 0}, "tle": {"line1": "1 43585U 18063A   25343.65327738  .00019078  00000+0  35273-3 0  9998", "line2": "2 43585  97.1557  46.6133 0004658 328.5556  31.5416 15.49082711410947"}}, "geometry": {"type": "Point", "coordinates": [42.113252953121695, 32.74360325092177]}}, {"type": "Feature", "properties": {"norad_id": 43613, "name": "ICESAT-2", "group": "resource", "lat": -9.020276286768876, "lon": -119.74067226858374, "alt_km": 486.7895512488967, "timestamp": "2025-12-09T18:55:16.896287+00:00", "meta": {"OBJECT_NAME": "ICESAT-2", "OBJECT_ID": "2018-070A", "EPOCH": "2025-12-09T15:49:04.029888", "MEAN_MOTION": 15.28272499, "ECCENTRICITY": 0.00023084, "INCLINATION": 92.0044, "RA_OF_ASC_NODE": 239.9059, "ARG_OF_PERICENTER": 156.8667, "MEAN_ANOMALY": 203.2687, "EPHEMERIS_TYPE": 0, "CLASSIFICATION_TYPE": "U", "NORAD_CAT_ID": 43613, "ELEMENT_SET_NO": 999, "REV_AT_EPOCH": 40351, "BSTAR": 0.00064014193, "MEAN_MOTION_DOT": 0.00017641, "MEAN_MOTION_DDOT": 0}, "tle": {"line1": "1 43613U 18070A   25343.65907442  .00017641  00000+0  64014-3 0  9993", "line2": "2 43613  92.0044 239.9059 0002308 156.8667 203.2687 15.28272499403517"}}, "geometry": {"type": "Point", "coordinates": [-119.74067226858374, -9.020276286768876]}}, {"type": "Feature", "properties": {"norad_id": 43719, "name": "HYSIS", "group": "resource", "lat": -68.8390424395758, "lon": 68.11123412525953, "alt_km": 641.5524063976409, "timestamp": "2025-12-09T18:55:16.896297+00:00", "meta": {"OBJECT_NAME": "HYSIS", "OBJECT_ID": "2018-096A", "EPOCH": "2025-12-09T14:22:00.384384", "MEAN_MOTION": 14.78632615, "ECCENTRICITY": 0.00014914, "INCLINATION": 98.0096, "RA_OF_ASC_NODE": 46.5914, "ARG_OF_PERICENTER": 58.2305, "MEAN_ANOMALY": 301.9051, "EPHEMERIS_TYPE": 0, "CLASSIFICATION_TYPE": "U", "NORAD_CAT_ID": 43719, "ELEMENT_SET_NO": 999, "REV_AT_EPOCH": 37940, "BSTAR": 0.00036663611, "MEAN_MOTION_DOT": 2.633e-05, "MEAN_MOTION_DDOT": 0}, "tle": {"line1": "1 43719U 18096A   25343.59861556  .00002633  00000+0  36664-3 0  9991", "line2": "2 43719  98.0096  46.5914 0001491  58.2305 301.9051 14.78632615379400"}}, "geometry": {"type": "Point", "coordinates": [68.11123412525953, -68.8390424395758]}}, {"type": "Feature", "properties": {"norad_id": 43783, "name": "KAZSTSAT", "group": "resource", "lat": -53.129123829819505, "lon": 29.155524370902906, "alt_km": 572.5612296099307, "timestamp": "2025-12-09T18:55:16.896307+00:00", "meta": {"OBJECT_NAME": "KAZSTSAT", "OBJECT_ID": "2018-099AB", "EPOCH": "2025-12-09T12:45:13.516416", "MEAN_MOTION": 14.99338471, "ECCENTRICITY": 0.00060696, "INCLINATION": 97.4557, "RA_OF_ASC_NODE": 18.8541, "ARG_OF_PERICENTER": 343.5366, "MEAN_ANOMALY": 16.566, "EPHEMERIS_TYPE": 0, "CLASSIFICATION_TYPE": "U", "NORAD_CAT_ID": 43783, "ELEMENT_SET_NO": 999, "REV_AT_EPOCH": 38288, "BSTAR": 0.00022078592, "MEAN_MOTION_DOT": 2.643e-05, "MEAN_MOTION_DDOT": 0}, "tle": {"line1": "1 43783U 18099AB  25343.53140644  .00002643  00000+0  22079-3 0  9993", "line2": "2 43783  97.4557  18.8541 0006069 343.5366  16.5660 14.99338471382884"}}, "geometry": {"type": "Point", "coordinates": [29.155524370902906, -53.129123829819505]}}, {"type": "Feature", "properties": {"norad_id": 43831, "name": "SAUDISAT 5A", "group": "resource", "lat": 77.79382507367069, "lon": 7.488228472117088, "alt_km": 473.62155048884597, "timestamp": "2025-12-09T18:55:16.896317+00:00", "meta": {"OBJECT_NAME": "SAUDISAT 5A", "OBJECT_ID": "2018-102A", "EPOCH": "2025-12-09T15:25:23.689056", "MEAN_MOTION": 15.25596357, "ECCENTRICITY": 0.00118299, "INCLINATION": 97.3352, "RA_OF_ASC_NODE": 43.8932, "ARG_OF_PERICENTER": 85.7042, "MEAN_ANOMALY": 274.5548, "EPHEMERIS_TYPE": 0, "CLASSIFICATION_TYPE": "U", "NORAD_CAT_ID": 43831, "ELEMENT_SET_NO": 999, "REV_AT_EPOCH": 38675, "BSTAR": 0.0003673309, "MEAN_MOTION_DOT": 9.281e-05, "MEAN_MOTION_DDOT": 0}, "tle": {"line1": "1 43831U 18102A   25343.64263529  .00009281  00000+0  36733-3 0  9999", "line2": "2 43831  97.3352  43.8932 0011829  85.7042 274.5548 15.25596357386758"}}, "geometry": {"type": "Point", "coordinates": [7.488228472117088, 77.79382507367069]}}, {"type": "Feature", "properties": {"norad_id": 43833, "name": "SAUDISAT 5B", "group": "resource", "lat": 50.50667712357517, "lon": -124.22617039676781, "alt_km": 476.8792708381916, "timestamp": "2025-12-09T18:55:16.896331+00:00", "meta": {"OBJECT_NAME": "SAUDISAT 5B", "OBJECT_ID": "2018-102C", "EPOCH": "2025-12-09T15:12:43.497792", "MEAN_MOTION": 15.25950111, "ECCENTRICITY": 0.0012527, "INCLINATION": 97.3447, "RA_OF_ASC_NODE": 46.6176, "ARG_OF_PERICENTER": 88.0805, "MEAN_ANOMALY": 272.1868, "EPHEMERIS_TYPE": 0, "CLASSIFICATION_TYPE": "U", "NORAD_CAT_ID": 43833, "ELEMENT_SET_NO": 999, "REV_AT_EPOCH": 38686, "BSTAR": 0.00033343368, "MEAN_MOTION_DOT": 8.509e-05, "MEAN_MOTION_DDOT": 0}, "tle": {"line1": "1 43833U 18102C   25343.63383678  .00008509  00000+0  33343-3 0  9994", "line2": "2 43833  97.3447  46.6176 0012527  88.0805 272.1868 15.25950111386868"}}, "geometry": {"type": "Point", "coordinates": [-124.22617039676781, 50.50667712357517]}}]}